NORAD_CAT_ID,OBJECT_NAME,OBJECT_TYPE,EPOCH,MEAN_MOTION,ECCENTRICITY,INCLINATION,RA_OF_ASC_NODE,ARG_OF_PERICENTER,MEAN_ANOMALY,BSTAR,MEAN_MOTION_DOT,MEAN_MOTION_DDOT,TLE_LINE0,TLE_LINE1,TLE_LINE2,SEMIMAJOR_AXIS,PERIOD,APOGEE,PERIGEE,DECAYED
49460.0,STARLINK-3140,PAYLOAD,2024-05-12 06:36:17,15.08760979,0.0001218,53.2192,330.7731,86.4317,273.6815,-0.0013724,-0.00022016,0.0,0 STARLINK-3140,1 49460U 21104BE  24133.27520201 -.00022016  00000-0 -13724-2 0  9995,2 49460  53.2192 330.7731 0001218  86.4317 273.6815 15.08760979138165,6918.122,95.443,540.83,539.144,0.0
49460.0,STARLINK-3140,PAYLOAD,2024-05-12 19:19:21,15.08829724,0.0001428,53.2198,328.3934,86.6149,273.5006,0.0003402,5.129e-05,0.0,0 STARLINK-3140,1 49460U 21104BE  24133.80511415  .00005129  00000-0  34020-3 0  9998,2 49460  53.2198 328.3934 0001428  86.6149 273.5006 15.08829724139332,6917.912,95.438,540.765,538.789,0.0
49460.0,STARLINK-3140,PAYLOAD,2024-05-13 06:27:04,15.08826453,0.0001354,53.2184,326.3109,92.3575,267.7572,0.00077931,0.00012132,0.0,0 STARLINK-3140,1 49460U 21104BE  24134.26880618  .00012132  00000-0  77931-3 0  9993,2 49460  53.2184 326.3109 0001354  92.3575 267.7572 15.08826453139401,6917.922,95.438,540.723,538.85,0.0
49460.0,STARLINK-3140,PAYLOAD,2024-05-13 19:10:10,15.08843023,0.0001207,53.2177,323.9319,84.9172,275.1958,0.0011835,0.00018599,0.0,0 STARLINK-3140,1 49460U 21104BE  24134.79872699  .00018599  00000-0  11835-2 0  9994,2 49460  53.2177 323.9319 0001207  84.9172 275.1958 15.08843023138396,6917.871,95.437,540.571,538.901,0.0
49460.0,STARLINK-3140,PAYLOAD,2024-05-14 12:39:23,15.08858098,0.0001475,53.2176,320.661,90.3865,269.7296,0.0013938,0.00021975,0.0,0 STARLINK-3140,1 49460U 21104BE  24135.52735797  .00021975  00000-0  13938-2 0  9991,2 49460  53.2176 320.6610 0001475  90.3865 269.7296 15.08858098139595,6917.825,95.436,540.71,538.67,0.0
49460.0,STARLINK-3140,PAYLOAD,2024-05-14 19:00:54,15.08879415,0.0002001,53.2177,319.4718,290.604,69.4738,0.00082564,0.00012891,0.0,0 STARLINK-3140,1 49460U 21104BE  24135.79229730  .00012891  00000-0  82564-3 0  9994,2 49460  53.2177 319.4718 0002001 290.6040  69.4738 15.08879415139634,6917.76,95.435,541.009,538.241,0.0
49460.0,STARLINK-3140,PAYLOAD,2024-05-14 22:11:39,15.08897841,0.0001423,53.2173,318.877,84.5392,275.5762,0.00067478,0.00010484,0.0,0 STARLINK-3140,1 49460U 21104BE  24135.92476585  .00010484  00000-0  67478-3 0  9994,2 49460  53.2173 318.8770 0001423  84.5392 275.5762 15.08897841138569,6917.704,95.434,540.553,538.584,0.0
49460.0,STARLINK-3140,PAYLOAD,2024-05-15 18:51:40,15.08861282,3.75e-05,53.2191,315.0115,112.2284,247.8748,-0.00024708,-4.22e-05,0.0,0 STARLINK-3140,1 49460U 21104BE  24136.78588474 -.00004220  00000-0 -24708-3 0  9992,2 49460  53.2191 315.0115 0000375 112.2284 247.8748 15.08861282139786,6917.815,95.436,539.94,539.421,0.0
49460.0,STARLINK-3140,PAYLOAD,2024-05-16 12:20:55,15.08848741,0.0001879,53.2203,311.7433,93.1376,266.9831,-5.6233e-05,-1.183e-05,0.0,0 STARLINK-3140,1 49460U 21104BE  24137.51452766 -.00001183  00000-0 -56233-4 0  9992,2 49460  53.2203 311.7433 0001879  93.1376 266.9831 15.08848741139897,6917.854,95.437,541.019,538.419,0.0
49460.0,STARLINK-3140,PAYLOAD,2024-05-16 18:42:27,15.08852701,0.0002382,53.2183,310.5523,98.7523,261.3739,0.0002188,3.197e-05,0.0,0 STARLINK-3140,1 49460U 21104BE  24137.77948211  .00003197  00000-0  21880-3 0  9999,2 49460  53.2183 310.5523 0002382  98.7523 261.3739 15.08852701138847,6917.842,95.437,541.354,538.059,0.0
49460.0,STARLINK-3140,PAYLOAD,2024-05-17 04:14:46,15.08847607,3.5e-05,53.2158,308.7661,62.6625,297.4403,0.00031756,4.771e-05,0.0,0 STARLINK-3140,1 49460U 21104BE  24138.17692495  .00004771  00000-0  31756-3 0  9996,2 49460  53.2158 308.7661 0000350  62.6625 297.4403 15.08847607138901,6917.857,95.437,539.964,539.48,0.0
49460.0,STARLINK-3140,PAYLOAD,2024-05-18 04:05:34,15.08835123,0.0002014,53.2191,304.3068,89.7257,270.3966,0.00012875,1.761e-05,0.0,0 STARLINK-3140,1 49460U 21104BE  24139.17054197  .00001761  00000-0  12875-3 0  9995,2 49460  53.2191 304.3068 0002014  89.7257 270.3966 15.08835123140144,6917.895,95.438,541.154,538.367,0.0
49460.0,STARLINK-3140,PAYLOAD,2024-05-18 10:27:07,15.08835836,9.93e-05,53.2214,303.1174,99.7647,260.3457,0.00022249,3.255e-05,0.0,0 STARLINK-3140,1 49460U 21104BE  24139.43549957  .00003255  00000-0  22249-3 0  9993,2 49460  53.2214 303.1174 0000993  99.7647 260.3457 15.08835836139090,6917.893,95.438,540.445,539.071,0.0
49460.0,STARLINK-3140,PAYLOAD,2024-05-18 19:59:23,15.08872121,8.58e-05,53.2155,301.3311,91.7313,268.3777,0.00082736,0.00012916,0.0,0 STARLINK-3140,1 49460U 21104BE  24139.83291636  .00012916  00000-0  82736-3 0  9996,2 49460  53.2155 301.3311 0000858  91.7313 268.3777 15.08872121140249,6917.782,95.436,540.241,539.054,0.0
49460.0,STARLINK-3140,PAYLOAD,2024-05-19 03:56:22,15.08832368,0.0003324,53.2159,299.8453,77.5905,282.5459,-4.9613e-06,-3.68e-06,0.0,0 STARLINK-3140,1 49460U 21104BE  24140.16414465 -.00000368  00000-0 -49613-5 0  9990,2 49460  53.2159 299.8453 0003324  77.5905 282.5459 15.08832368140290,6917.904,95.438,542.068,537.469,0.0
49460.0,STARLINK-3140,PAYLOAD,2024-05-19 10:17:54,15.08835912,0.0002899,53.2159,298.6573,73.76,286.371,3.7619e-05,3.1e-06,0.0,0 STARLINK-3140,1 49460U 21104BE  24140.42910246  .00000310  00000-0  37619-4 0  9994,2 49460  53.2159 298.6573 0002899  73.7600 286.3710 15.08835912139249,6917.893,95.438,541.763,537.752,0.0
49460.0,STARLINK-3140,PAYLOAD,2024-05-20 14:54:50,15.08846671,0.0001657,53.2151,293.3034,68.6125,291.5043,0.00076589,0.00011924,0.0,0 STARLINK-3140,1 49460U 21104BE  24141.62142316  .00011924  00000-0  76589-3 0  9993,2 49460  53.2151 293.3034 0001657  68.6125 291.5043 15.08846671139422,6917.86,95.437,540.871,538.579,0.0
49460.0,STARLINK-3140,PAYLOAD,2024-05-20 19:41:00,15.08858892,0.0001822,53.217,292.4072,60.6539,299.4635,0.0010657,0.00016722,0.0,0 STARLINK-3140,1 49460U 21104BE  24141.82014087  .00016722  00000-0  10657-2 0  9992,2 49460  53.2170 292.4072 0001822  60.6539 299.4635 15.08858892140547,6917.823,95.436,540.948,538.427,0.0
49460.0,STARLINK-3140,PAYLOAD,2024-05-21 13:10:14,15.08849326,0.0001271,53.2163,289.14,68.0283,292.0844,0.00070763,0.00010995,0.0,0 STARLINK-3140,1 49460U 21104BE  24142.54878131  .00010995  00000-0  70763-3 0  9991,2 49460  53.2163 289.1400 0001271  68.0283 292.0844 15.08849326140658,6917.852,95.437,540.596,538.838,0.0
49460.0,STARLINK-3140,PAYLOAD,2024-05-21 14:45:37,15.08849305,0.0001167,53.2168,288.8429,66.2229,293.8885,0.0014431,0.00022759,0.0,0 STARLINK-3140,1 49460U 21104BE  24142.61502220  .00022759  00000-0  14431-2 0  9992,2 49460  53.2168 288.8429 0001167  66.2229 293.8885 15.08849305139574,6917.852,95.437,540.524,538.91,0.0
49460.0,STARLINK-3140,PAYLOAD,2024-05-21 16:21:00,15.08845272,0.0001274,53.2169,288.5447,82.5659,277.5478,0.00094366,0.00014764,0.0,0 STARLINK-3140,1 49460U 21104BE  24142.68126140  .00014764  00000-0  94366-3 0  9995,2 49460  53.2169 288.5447 0001274  82.5659 277.5478 15.08845272139586,6917.864,95.437,540.611,538.848,0.0
49460.0,STARLINK-3140,PAYLOAD,2024-05-22 09:50:15,15.08842215,0.0001629,53.219,285.2749,88.9461,271.1718,0.0007315,0.00011374,0.0,0 STARLINK-3140,1 49460U 21104BE  24143.40990240  .00011374  00000-0  73150-3 0  9998,2 49460  53.2190 285.2749 0001629  88.9461 271.1718 15.08842215140789,6917.874,95.437,540.866,538.612,0.0
49460.0,STARLINK-3140,PAYLOAD,2024-05-23 12:51:49,15.08839051,0.0001309,53.2177,280.2172,63.6595,296.4532,0.00018863,2.715e-05,0.0,0 STARLINK-3140,1 49460U 21104BE  24144.53598532  .00002715  00000-0  18863-3 0  9990,2 49460  53.2177 280.2172 0001309  63.6595 296.4532 15.08839051140959,6917.883,95.438,540.654,538.843,0.0
49460.0,STARLINK-3140,PAYLOAD,2024-05-23 14:27:12,15.08840023,0.0001435,53.2183,279.9227,87.839,272.2766,0.00010988,1.461e-05,0.0,0 STARLINK-3140,1 49460U 21104BE  24144.60222433  .00001461  00000-0  10988-3 0  9999,2 49460  53.2183 279.9227 0001435  87.8390 272.2766 15.08840023139874,6917.88,95.438,540.738,538.753,0.0
49460.0,STARLINK-3140,PAYLOAD,2024-05-23 16:02:35,15.0884079,0.0001457,53.2184,279.6252,92.2051,267.9108,0.00010558,1.393e-05,0.0,0 STARLINK-3140,1 49460U 21104BE  24144.66846381  .00001393  00000-0  10558-3 0  9996,2 49460  53.2184 279.6252 0001457  92.2051 267.9108 15.08840790139881,6917.878,95.438,540.751,538.735,0.0
49460.0,STARLINK-3140,PAYLOAD,2024-05-24 14:17:59,15.08839109,0.0001529,53.2176,275.4653,97.134,262.9826,0.00011934,1.612e-05,0.0,0 STARLINK-3140,1 49460U 21104BE  24145.59582615  .00001612  00000-0  11934-3 0  9999,2 49460  53.2176 275.4653 0001529  97.1340 262.9826 15.08839109140028,6917.883,95.438,540.806,538.69,0.0
49460.0,STARLINK-3140,PAYLOAD,2024-05-24 17:28:45,15.08850953,0.0001389,53.2175,274.8645,82.8867,277.2283,0.00029302,4.38e-05,0.0,0 STARLINK-3140,1 49460U 21104BE  24145.72830119  .00004380  00000-0  29302-3 0  9992,2 49460  53.2175 274.8645 0001389  82.8867 277.2283 15.08850953141139,6917.847,95.437,540.673,538.751,0.0
49460.0,STARLINK-3140,PAYLOAD,2024-05-25 12:33:23,15.08849718,0.0001917,53.2183,271.3017,104.5976,255.5229,-0.00030475,-5.136e-05,0.0,0 STARLINK-3140,1 49460U 21104BE  24146.52318364 -.00005136  00000-0 -30475-3 0  9999,2 49460  53.2183 271.3017 0001917 104.5976 255.5229 15.08849718141252,6917.851,95.437,541.042,538.39,0.0
49460.0,STARLINK-3140,PAYLOAD,2024-05-25 14:08:46,15.08837965,0.0001517,53.2175,271.0049,88.058,272.0586,7.0411e-05,8.33e-06,0.0,0 STARLINK-3140,1 49460U 21104BE  24146.58942791  .00000833  00000-0  70411-4 0  9994,2 49460  53.2175 271.0049 0001517  88.0580 272.0586 15.08837965140179,6917.887,95.438,540.801,538.702,0.0
49460.0,STARLINK-3140,PAYLOAD,2024-05-26 12:24:10,15.08839102,0.0001792,53.2175,266.8351,83.5185,276.6011,-8.3658e-05,-1.619e-05,0.0,0 STARLINK-3140,1 49460U 21104BE  24147.51678839 -.00001619  00000-0 -83658-4 0  9999,2 49460  53.2175 266.8351 0001792  83.5185 276.6011 15.08839102141408,6917.883,95.438,540.988,538.508,0.0
